DRAGON CRS-34           
1 69103U 26107A   26136.10407325  .00322650  11442-4  28729-3 0  9990
2 69103  51.6488  99.3260 0073202 229.8939 129.5643 16.06426992    25
